RTU MIREA 1 (RS51S)     
1 61785U 24199BC  26098.24604278  .00047339  00000+0  71680-3 0  9990
2 61785  97.3055 333.2914 0010373 165.9546 194.1998 15.54464861123587
TEVEL2-4                
1 63213U 25052D   26098.22564817  .00018104  00000+0  58293-3 0  9992
2 63213  97.3976 354.6032 0003155  41.0758 319.0721 15.32260920 59399
TEVEL2-5                
1 63214U 25052E   26098.17378296  .00018550  00000+0  59980-3 0  9990
2 63214  97.3973 354.5173 0003167  41.1344 319.0136 15.32120703 59380
TEVEL2-6                
1 63215U 25052F   26098.18438689  .00019021  00000+0  61570-3 0  9997
2 63215  97.3973 354.5132 0003248  39.9898 320.1582 15.32080614 59389
TEVEL2-1                
1 63217U 25052H   26098.19103409  .00018533  00000+0  60853-3 0  9999
2 63217  97.3948 354.2219 0003754  48.2199 311.9363 15.31624468 59379
TEVEL2-3                
1 63218U 25052J   26098.18787165  .00018567  00000+0  60883-3 0  9996
2 63218  97.3949 354.2333 0003918  49.8962 310.2622 15.31666228 59375
TEVEL2-2                
1 63219U 25052K   26098.19163128  .00018335  00000+0  60199-3 0  9998
2 63219  97.3945 354.2236 0003773  48.6146 311.5420 15.31628280 59370
TEVEL2-9                
1 63237U 25052AD  26098.21385540  .00016452  00000+0  57107-3 0  9998
2 63237  97.4011 353.7620 0007500  45.2529 314.9320 15.29829008 59325
TEVEL2-7                
1 63238U 25052AE  26098.17715522  .00017081  00000+0  59721-3 0  9994
2 63238  97.4014 353.6685 0007669  45.0928 315.0934 15.29584004 59312
TEVEL2-8                
1 63239U 25052AF  26098.18458603  .00017177  00000+0  60092-3 0  9999
2 63239  97.4013 353.6551 0007683  45.7377 314.4493 15.29563434 59312
HADES-ICM               
1 63492U 25052BN  26097.46642554  .00233261  00000+0  20438-2 0  9993
2 63492  97.3881 359.1652 0005615  76.2366 283.9520 15.68134044 59638
INNOSAT 16 (RS92S7)     
1 64878U 25155C   26098.25510642  .00007381  00000+0  30095-3 0  9999
2 64878  97.4515  65.6747 0012562  75.5260 284.7371 15.24671180 70017
GEOSCAN 6 (RS92S6)      
1 64879U 25155D   26098.24268838  .00011894  00000+0  42679-3 0  9991
2 64879  97.4511  66.6228 0010001  71.5682 288.6644 15.28799715 70070
GEOSCAN 1 (RS92S1)      
1 64880U 25155E   26098.26974894  .00012659  00000+0  44741-3 0  9993
2 64880  97.4509  66.7431 0009936  71.8594 288.3727 15.29282760 70084
239ALFEROV (RS61S)      
1 64881U 25155F   26098.26381245  .00016425  00000+0  54889-3 0  9995
2 64881  97.4512  67.0864 0009625  72.1267 288.1023 15.31045583 70102
GEOSCAN 2 (RS92S2)      
1 64890U 25155Q   26098.27630587  .00012185  00000+0  42699-3 0  9997
2 64890  97.4507  66.8734 0009031  61.9353 298.2799 15.29579713 70096
GEOSCAN 5 (RS92S5)      
1 64891U 25155R   26098.26755655  .00016592  00000+0  54889-3 0  9991
2 64891  97.4504  67.2004 0008567  77.9900 282.2301 15.31379483 70117
GEOSCAN 4 (RS92S4)      
1 64892U 25155S   26098.25783604  .00016937  00000+0  55821-3 0  9996
2 64892  97.4507  67.2217 0008669  78.3361 281.8852 15.31495692 70113
GEOSCAN 3 (RS92S3)      
1 64893U 25155T   26098.27347352  .00019610  00000+0  61526-3 0  9995
2 64893  97.4498  67.4889 0008411  80.6532 279.5661 15.33046431 70130
INNOSAT 3 (RS92S0)      
1 64894U 25155U   26098.26522056  .00038151  00000+0  98020-3 0  9991
2 64894  97.4463  68.3674 0008252  82.8485 277.3698 15.39163598 70191
KNACKSAT-2              
1 67683U 98067XZ  26097.81203625  .00040284  00000+0  60508-3 0  9990
2 67683  51.6306 286.8782 0010798 294.1615  65.8246 15.54410915  9316
